OBJECT_NAME,OBJECT_ID,EPOCH,MEAN_MOTION,ECCENTRICITY,INCLINATION,RA_OF_ASC_NODE,ARG_OF_PERICENTER,MEAN_ANOMALY,EPHEMERIS_TYPE,CLASSIFICATION_TYPE,NORAD_CAT_ID,ELEMENT_SET_NO,REV_AT_EPOCH,BSTAR,MEAN_MOTION_DOT,MEAN_MOTION_DDOT
ONEWEB-0609,2023-043AA,2026-07-17T03:33:04.804992,13.15547430,.00021367,87.8981,253.2412,97.0295,263.1078,0,U,56070,999,16037,.51013394E-3,.205E-5,0
ONEWEB-0613,2023-043AB,2026-07-17T14:26:47.724864,13.15547822,.0002209,87.8978,253.1633,103.3162,256.8214,0,U,56071,999,16043,.31418E-3,.131E-5,0
ONEWEB-0630,2023-043AC,2026-07-17T10:40:53.609088,13.15549694,.0002187,87.8988,253.1681,103.3281,256.8094,0,U,56072,999,16040,.32639E-3,.136E-5,0
ONEWEB-0632,2023-043AD,2026-07-17T10:34:03.959040,13.15548604,.0002191,87.8991,253.1857,102.6523,257.4853,0,U,56073,999,16040,.16216E-3,.74E-6,0
ONEWEB-0633,2023-043AE,2026-07-17T03:06:50.568480,13.15554674,.00024567,87.8991,253.2251,100.0293,260.1115,0,U,56074,999,16034,-.30624734E-2,-.114E-4,0
ONEWEB-0634,2023-043AF,2026-07-17T10:04:24.072384,13.15547849,.0002254,87.8985,253.2050,90.4065,269.7324,0,U,56075,999,16037,-.23029E-3,-.74E-6,0
ONEWEB-0635,2023-043AG,2026-07-17T02:39:27.697536,13.15547961,.00017703,87.8992,253.2324,96.6864,263.4467,0,U,56076,999,16036,-.24859658E-3,-.81E-6,0
ONEWEB-0636,2023-043AH,2026-07-17T13:25:10.953120,13.15547548,.0001854,87.8988,253.1482,97.0189,263.1152,0,U,56077,999,16040,-.41292E-3,-.143E-5,0
ONEWEB-0637,2023-043AJ,2026-07-17T13:16:03.546912,13.15548211,.0001992,87.8981,253.1638,90.5852,269.5507,0,U,56078,999,16042,-.36096E-3,-.123E-5,0
ONEWEB-0647,2023-043AK,2026-07-17T04:01:35.718528,13.15549779,.00020047,87.8985,253.2530,101.5516,258.5840,0,U,56079,999,16036,.13063867E-4,.18E-6,0
ONEWEB-0651,2023-043AL,2026-07-17T16:41:25.247040,13.15548746,.0001831,87.8982,253.1414,93.6785,266.4555,0,U,56080,999,16163,.46163E-3,.187E-5,0
ONEWEB-0718,2023-043AM,2026-07-17T14:45:02.452608,13.15549488,.0002502,87.8989,253.1377,90.8299,269.3118,0,U,56081,999,16043,.10811E-3,.54E-6,0
ONEWEB-0561,2023-068A,2026-07-17T10:11:27.701952,13.20770142,.0001828,87.9187,268.4177,106.6135,253.5199,0,U,56710,999,15349,.15517E-3,.76E-6,0
ONEWEB-0668,2023-068B,2026-07-17T14:23:34.976832,13.16595256,.0002281,87.9080,222.7314,80.6065,279.5324,0,U,56711,999,15578,.26896E-3,.116E-5,0
ONEWEB-0676,2023-068C,2026-07-17T12:45:33.568992,13.16594428,.0001744,87.9082,222.7512,93.8800,266.2531,0,U,56712,999,15569,-.88883E-4,-.21E-6,0
ONEWEB-0677,2023-068D,2026-07-17T15:21:46.711008,13.20771949,.0001846,87.9179,268.3671,88.7543,271.3802,0,U,56713,999,15382,.97814E-4,.53E-6,0
ONEWEB-0678,2023-068E,2026-07-17T12:09:53.682048,13.15548324,.0002112,87.8989,253.1543,105.6986,254.4378,0,U,56714,999,15327,.16308E-3,.74E-6,0
ONEWEB-0679,2023-068F,2026-07-17T11:46:16.448160,13.16594090,.0001928,87.9077,222.7504,77.1953,282.9393,0,U,56715,999,15571,-.10226E-3,-.26E-6,0
ONEWEB-0680,2023-068G,2026-07-17T12:37:12.950112,13.21825900,.0002195,87.9239,237.9352,79.8187,280.3194,0,U,56716,999,15510,.21723E-3,.103E-5,0
ONEWEB-0681,2023-068H,2026-07-17T01:15:19.977984,13.21827801,.0001099,87.9236,238.0297,95.7358,264.3901,0,U,56717,999,15503,.19777851E-3,.95E-6,0
ONEWEB-0682,2023-068J,2026-07-17T14:33:38.833344,13.15548106,.0002142,87.8989,253.1349,83.0009,277.1365,0,U,56718,999,15345,.29927E-3,.125E-5,0
ONEWEB-0683,2023-068K,2026-07-17T02:21:12.288096,13.15548629,.0002228,87.8991,253.2366,91.3865,268.7520,0,U,56719,999,15335,-.21312E-3,-.67E-6,0
ONEWEB-0684,2023-068L,2026-07-17T02:32:36.362688,13.15549915,.00030998,87.8989,253.2243,117.4994,242.6452,0,U,56720,999,15318,-.21223154E-3,-.67E-6,0
ONEWEB-0686,2023-068M,2026-07-17T07:10:24.839040,13.16594154,.0002406,87.9071,222.8091,92.5444,267.5962,0,U,56721,999,15567,.99494E-4,.51E-6,0
ONEWEB-0694,2023-068N,2026-07-17T07:19:32.031840,13.16593760,.0002248,87.9092,222.7785,81.6517,278.4869,0,U,56722,999,15573,.74913E-4,.41E-6,0
ONEWEB-0696,2023-068P,2026-07-17T10:38:36.621024,13.15549454,.000212,87.8980,253.1933,111.0937,249.0420,0,U,56723,999,15334,.17464E-3,.79E-6,0
ONEWEB-0703,2023-068Q,2026-07-17T14:31:21.317376,13.15547777,.0001835,87.8985,253.1422,123.7125,236.4180,0,U,56724,999,15325,.32713E-3,.136E-5,0
ONEWEB-0721,2023-068R,2026-07-17T02:25:17.649408,13.22471256,.00017493,86.6741,75.9661,79.5441,280.5890,0,U,56725,999,16189,.14479695E-3,.75E-6,0
ONEWEB-0015,2024-188A,2026-07-17T05:13:37.172640,13.11417689,.0001462,87.8881,15.1121,76.7104,283.4187,0,U,61594,999,8839,-.13671E-2,-.472E-5,0
ONEWEB-0687,2024-188B,2026-07-17T09:03:30.407328,13.17650617,.0001903,87.9143,359.8688,78.4633,281.6712,0,U,61595,999,8987,.62657E-4,.37E-6,0
