ONEWEB-0609             
1 56070U 23043AA  26198.14797228  .00000205  00000+0  51013-3 0  9995
2 56070  87.8981 253.2412 0002136  97.0295 263.1078 13.15547430160371
ONEWEB-0613             
1 56071U 23043AB  26198.60194126  .00000131  00000+0  31418-3 0  9990
2 56071  87.8978 253.1633 0002209 103.3162 256.8214 13.15547822160430
ONEWEB-0630             
1 56072U 23043AC  26198.44506492  .00000136  00000+0  32639-3 0  9997
2 56072  87.8988 253.1681 0002187 103.3281 256.8094 13.15549694160404
ONEWEB-0632             
1 56073U 23043AD  26198.44032360  .00000074  00000+0  16216-3 0  9990
2 56073  87.8991 253.1857 0002191 102.6523 257.4853 13.15548604160400
ONEWEB-0633             
1 56074U 23043AE  26198.12975195 -.00001140  00000+0 -30625-2 0  9994
2 56074  87.8991 253.2251 0002456 100.0293 260.1115 13.15554674160349
ONEWEB-0634             
1 56075U 23043AF  26198.41972306 -.00000074  00000+0 -23029-3 0  9994
2 56075  87.8985 253.2050 0002254  90.4065 269.7324 13.15547849160371
ONEWEB-0635             
1 56076U 23043AG  26198.11073724 -.00000081  00000+0 -24860-3 0  9990
2 56076  87.8992 253.2324 0001770  96.6864 263.4467 13.15547961160364
ONEWEB-0636             
1 56077U 23043AH  26198.55915455 -.00000143  00000+0 -41292-3 0  9992
2 56077  87.8988 253.1482 0001854  97.0189 263.1152 13.15547548160406
ONEWEB-0637             
1 56078U 23043AJ  26198.55281883 -.00000123  00000+0 -36096-3 0  9998
2 56078  87.8981 253.1638 0001992  90.5852 269.5507 13.15548211160425
ONEWEB-0647             
1 56079U 23043AK  26198.16777452  .00000018  00000+0  13064-4 0  9990
2 56079  87.8985 253.2530 0002004 101.5516 258.5840 13.15549779160368
ONEWEB-0651             
1 56080U 23043AL  26198.69543110  .00000187  00000+0  46163-3 0  9994
2 56080  87.8982 253.1414 0001831  93.6785 266.4555 13.15548746161638
ONEWEB-0718             
1 56081U 23043AM  26198.61461172  .00000054  00000+0  10811-3 0  9998
2 56081  87.8989 253.1377 0002502  90.8299 269.3118 13.15549488160437
ONEWEB-0561             
1 56710U 23068A   26198.42462618  .00000076  00000+0  15517-3 0  9991
2 56710  87.9187 268.4177 0001828 106.6135 253.5199 13.20770142153490
ONEWEB-0668             
1 56711U 23068B   26198.59971038  .00000116  00000+0  26896-3 0  9998
2 56711  87.9080 222.7314 0002281  80.6065 279.5324 13.16595256155784
ONEWEB-0676             
1 56712U 23068C   26198.53163853 -.00000021  00000+0 -88883-4 0  9993
2 56712  87.9082 222.7512 0001744  93.8800 266.2531 13.16594428155696
ONEWEB-0677             
1 56713U 23068D   26198.64012397  .00000053  00000+0  97814-4 0  9999
2 56713  87.9179 268.3671 0001846  88.7543 271.3802 13.20771949153827
ONEWEB-0678             
1 56714U 23068E   26198.50687132  .00000074  00000+0  16308-3 0  9991
2 56714  87.8989 253.1543 0002112 105.6986 254.4378 13.15548324153275
ONEWEB-0679             
1 56715U 23068F   26198.49046815 -.00000026  00000+0 -10226-3 0  9999
2 56715  87.9077 222.7504 0001928  77.1953 282.9393 13.16594090155711
ONEWEB-0680             
1 56716U 23068G   26198.52584433  .00000103  00000+0  21723-3 0  9995
2 56716  87.9239 237.9352 0002195  79.8187 280.3194 13.21825900155103
ONEWEB-0681             
1 56717U 23068H   26198.05231456  .00000095  00000+0  19778-3 0  9995
2 56717  87.9236 238.0297 0001099  95.7358 264.3901 13.21827801155032
ONEWEB-0682             
1 56718U 23068J   26198.60669946  .00000125  00000+0  29927-3 0  9997
2 56718  87.8989 253.1349 0002142  83.0009 277.1365 13.15548106153457
ONEWEB-0683             
1 56719U 23068K   26198.09805889 -.00000067  00000+0 -21312-3 0  9996
2 56719  87.8991 253.2366 0002228  91.3865 268.7520 13.15548629153356
ONEWEB-0684             
1 56720U 23068L   26198.10597642 -.00000067  00000+0 -21223-3 0  9996
2 56720  87.8989 253.2243 0003099 117.4994 242.6452 13.15549915153184
ONEWEB-0686             
1 56721U 23068M   26198.29889860  .00000051  00000+0  99494-4 0  9990
2 56721  87.9071 222.8091 0002406  92.5444 267.5962 13.16594154155679
ONEWEB-0694             
1 56722U 23068N   26198.30523185  .00000041  00000+0  74913-4 0  9996
2 56722  87.9092 222.7785 0002248  81.6517 278.4869 13.16593760155732
ONEWEB-0696             
1 56723U 23068P   26198.44347941  .00000079  00000+0  17464-3 0  9994
2 56723  87.8980 253.1933 0002120 111.0937 249.0420 13.15549454153346
ONEWEB-0703             
1 56724U 23068Q   26198.60510784  .00000136  00000+0  32713-3 0  9998
2 56724  87.8985 253.1422 0001835 123.7125 236.4180 13.15547777153255
ONEWEB-0721             
1 56725U 23068R   26198.10089872  .00000075  00000+0  14480-3 0  9996
2 56725  86.6741  75.9661 0001749  79.5441 280.5890 13.22471256161894
ONEWEB-0015             
1 61594U 24188A   26198.21779136 -.00000472  00000+0 -13671-2 0  9994
2 61594  87.8881  15.1121 0001461  76.7104 283.4187 13.11417689 88397
ONEWEB-0687             
1 61595U 24188B   26198.37743527  .00000037  00000+0  62657-4 0  9992
2 61595  87.9143 359.8688 0001902  78.4633 281.6712 13.17650617 89876
